[{"OBJECT_NAME":"STARLINK-3536","OBJECT_ID":"2022-022AN","EPOCH":"2026-03-09T00:54:05.441472","MEAN_MOTION":15.08838759,"ECCENTRICITY":0.00012302,"INCLINATION":53.2188,"RA_OF_ASC_NODE":2.0467,"ARG_OF_PERICENTER":97.5151,"MEAN_ANOMALY":262.5981,"EPHEMERIS_TYPE":0,"CLASSIFICATION_TYPE":"U","NORAD_CAT_ID":51888,"ELEMENT_SET_NO":999,"REV_AT_EPOCH":22315,"BSTAR":2.0456228e-5,"MEAN_MOTION_DOT":3.8e-7,"MEAN_MOTION_DDOT":0},{"OBJECT_NAME":"NANOFF A","OBJECT_ID":"2023-185T","EPOCH":"2026-03-09T23:34:34.415328","MEAN_MOTION":15.11542977,"ECCENTRICITY":0.00086783,"INCLINATION":97.5359,"RA_OF_ASC_NODE":137.8345,"ARG_OF_PERICENTER":292.8968,"MEAN_ANOMALY":67.1346,"EPHEMERIS_TYPE":0,"CLASSIFICATION_TYPE":"U","NORAD_CAT_ID":58810,"ELEMENT_SET_NO":999,"REV_AT_EPOCH":11805,"BSTAR":0.00027314844,"MEAN_MOTION_DOT":4.57e-5,"MEAN_MOTION_DDOT":0}]
